[
    {
        "Altitude(m)": 706309.0154091432,
        "Argument of Periapsis(deg)": 0.0034170363559881197,
        "Eccentricity": 0.0,
        "Inclination(deg)": 45.0,
        "Latitude(deg)": -14.009955434188846,
        "Longitude(deg)": -110.84139353800492,
        "Mean Anomaly(deg)": 199.82356499424424,
        "RAAN(deg)": 154.99677441756256,
        "Satellite Name": "Constellation 1 694",
        "Satellite Number": 694,
        "Semi-Major Axis(m)": 7083131.272910544,
        "Time(s)": 57
    },
    {
        "Altitude(m)": 706320.5171324409,
        "Argument of Periapsis(deg)": 0.003476984362233526,
        "Eccentricity": 0.0,
        "Inclination(deg)": 45.0,
        "Latitude(deg)": -14.051762765092525,
        "Longitude(deg)": -110.80001717952251,
        "Mean Anomaly(deg)": 199.88426613449414,
        "RAAN(deg)": 154.99671782839695,
        "Satellite Name": "Constellation 1 694",
        "Satellite Number": 694,
        "Semi-Major Axis(m)": 7083131.272910544,
        "Time(s)": 58
    },
    {
        "Altitude(m)": 706332.0325909823,
        "Argument of Periapsis(deg)": 0.003536932368478932,
        "Eccentricity": 0.0,
        "Inclination(deg)": 45.0,
        "Latitude(deg)": -14.093561298948014,
        "Longitude(deg)": -110.75862459130234,
        "Mean Anomaly(deg)": 199.94496727474402,
        "RAAN(deg)": 154.9966612392314,
        "Satellite Name": "Constellation 1 694",
        "Satellite Number": 694,
        "Semi-Major Axis(m)": 7083131.272910544,
        "Time(s)": 59
    },
    {
        "Altitude(m)": 706343.5617505152,
        "Argument of Periapsis(deg)": 0.003596880374724337,
        "Eccentricity": 0.0,
        "Inclination(deg)": 45.0,
        "Latitude(deg)": -14.135351005836078,
        "Longitude(deg)": -110.71721538360441,
        "Mean Anomaly(deg)": 200.00566841499395,
        "RAAN(deg)": 154.99660465006582,
        "Satellite Name": "Constellation 1 694",
        "Satellite Number": 694,
        "Semi-Major Axis(m)": 7083131.272910544,
        "Time(s)": 60
    },
    {
        "Altitude(m)": 706355.1045767269,
        "Argument of Periapsis(deg)": 0.0036568283809697427,
        "Eccentricity": 0.0,
        "Inclination(deg)": 45.0,
        "Latitude(deg)": -14.177131855805591,
        "Longitude(deg)": -110.67578967095116,
        "Mean Anomaly(deg)": 200.0663695552438,
        "RAAN(deg)": 154.99654806090027,
        "Satellite Name": "Constellation 1 694",
        "Satellite Number": 694,
        "Semi-Major Axis(m)": 7083131.272910544,
        "Time(s)": 61
    },
    {
        "Altitude(m)": 706366.6610352315,
        "Argument of Periapsis(deg)": 0.003716776387215149,
        "Eccentricity": 0.0,
        "Inclination(deg)": 45.0,
        "Latitude(deg)": -14.218903818873581,
        "Longitude(deg)": -110.63434739973921,
        "Mean Anomaly(deg)": 200.1270706954937,
        "RAAN(deg)": 154.99649147173469,
        "Satellite Name": "Constellation 1 694",
        "Satellite Number": 694,
        "Semi-Major Axis(m)": 7083131.272910544,
        "Time(s)": 62
    },
    {
        "Altitude(m)": 706378.2310915788,
        "Argument of Periapsis(deg)": 0.003776724393460554,
        "Eccentricity": 0.0,
        "Inclination(deg)": 45.0,
        "Latitude(deg)": -14.260666865025486,
        "Longitude(deg)": -110.59288851633593,
        "Mean Anomaly(deg)": 200.18777183574355,
        "RAAN(deg)": 154.9964348825691,
        "Satellite Name": "Constellation 1 694",
        "Satellite Number": 694,
        "Semi-Major Axis(m)": 7083131.272910544,
        "Time(s)": 63
    },
    {
        "Altitude(m)": 706389.8147112437,
        "Argument of Periapsis(deg)": 0.003836672399705959,
        "Eccentricity": 0.0,
        "Inclination(deg)": 45.0,
        "Latitude(deg)": -14.302420964214683,
        "Longitude(deg)": -110.55141296707995,
        "Mean Anomaly(deg)": 200.24847297599356,
        "RAAN(deg)": 154.99637829340355,
        "Satellite Name": "Constellation 1 694",
        "Satellite Number": 694,
        "Semi-Major Axis(m)": 7083131.272910544,
        "Time(s)": 64
    },
    {
        "Altitude(m)": 706401.4118596464,
        "Argument of Periapsis(deg)": 0.003896620405951365,
        "Eccentricity": 0.0,
        "Inclination(deg)": 45.0,
        "Latitude(deg)": -14.344166086362405,
        "Longitude(deg)": -110.50992069828088,
        "Mean Anomaly(deg)": 200.30917411624338,
        "RAAN(deg)": 154.996321704238,
        "Satellite Name": "Constellation 1 694",
        "Satellite Number": 694,
        "Semi-Major Axis(m)": 7083131.272910544,
        "Time(s)": 65
    },
    {
        "Altitude(m)": 706413.0225021228,
        "Argument of Periapsis(deg)": 0.003956568412196771,
        "Eccentricity": 0.0,
        "Inclination(deg)": 45.0,
        "Latitude(deg)": -14.385902201357892,
        "Longitude(deg)": -110.46841165621923,
        "Mean Anomaly(deg)": 200.36987525649332,
        "RAAN(deg)": 154.99626511507242,
        "Satellite Name": "Constellation 1 694",
        "Satellite Number": 694,
        "Semi-Major Axis(m)": 7083131.272910544,
        "Time(s)": 66
    },
    {
        "Altitude(m)": 706424.6466039588,
        "Argument of Periapsis(deg)": 0.004016516418442176,
        "Eccentricity": 0.0,
        "Inclination(deg)": 45.0,
        "Latitude(deg)": -14.427629279057854,
        "Longitude(deg)": -110.42688595524359,
        "Mean Anomaly(deg)": 200.43057639674325,
        "RAAN(deg)": 154.99620852590684,
        "Satellite Name": "Constellation 1 694",
        "Satellite Number": 694,
        "Semi-Major Axis(m)": 7083131.272910544,
        "Time(s)": 67
    },
    {
        "Altitude(m)": 706436.2841303531,
        "Argument of Periapsis(deg)": 0.004076464424687581,
        "Eccentricity": 0.0,
        "Inclination(deg)": 45.0,
        "Latitude(deg)": -14.46934728928704,
        "Longitude(deg)": -110.38534320538207,
        "Mean Anomaly(deg)": 200.4912775369931,
        "RAAN(deg)": 154.99615193674128,
        "Satellite Name": "Constellation 1 694",
        "Satellite Number": 694,
        "Semi-Major Axis(m)": 7083131.272910544,
        "Time(s)": 68
    },
    {
        "Altitude(m)": 706447.9350464565,
        "Argument of Periapsis(deg)": 0.004136412430932987,
        "Eccentricity": 0.0,
        "Inclination(deg)": 45.0,
        "Latitude(deg)": -14.511056201837352,
        "Longitude(deg)": -110.34378352092494,
        "Mean Anomaly(deg)": 200.55197867724303,
        "RAAN(deg)": 154.9960953475757,
        "Satellite Name": "Constellation 1 694",
        "Satellite Number": 694,
        "Semi-Major Axis(m)": 7083131.272910544,
        "Time(s)": 69
    },
    {
        "Altitude(m)": 706459.5993173425,
        "Argument of Periapsis(deg)": 0.004196360437178394,
        "Eccentricity": 0.0,
        "Inclination(deg)": 45.0,
        "Latitude(deg)": -14.552755986468082,
        "Longitude(deg)": -110.30220684803629,
        "Mean Anomaly(deg)": 200.61267981749288,
        "RAAN(deg)": 154.99603875841015,
        "Satellite Name": "Constellation 1 694",
        "Satellite Number": 694,
        "Semi-Major Axis(m)": 7083131.272910544,
        "Time(s)": 70
    },
    {
        "Altitude(m)": 706471.2769080178,
        "Argument of Periapsis(deg)": 0.004256308443423799,
        "Eccentricity": 0.0,
        "Inclination(deg)": 45.0,
        "Latitude(deg)": -14.594446612906092,
        "Longitude(deg)": -110.26061313285071,
        "Mean Anomaly(deg)": 200.67338095774286,
        "RAAN(deg)": 154.99598216924454,
        "Satellite Name": "Constellation 1 694",
        "Satellite Number": 694,
        "Semi-Major Axis(m)": 7083131.272910544,
        "Time(s)": 71
    },
    {
        "Altitude(m)": 706482.9677834278,
        "Argument of Periapsis(deg)": 0.004316256449669204,
        "Eccentricity": 0.0,
        "Inclination(deg)": 45.0,
        "Latitude(deg)": -14.636128050845098,
        "Longitude(deg)": -110.21900232147384,
        "Mean Anomaly(deg)": 200.73408209799274,
        "RAAN(deg)": 154.995925580079,
        "Satellite Name": "Constellation 1 694",
        "Satellite Number": 694,
        "Semi-Major Axis(m)": 7083131.272910544,
        "Time(s)": 72
    },
    {
        "Altitude(m)": 706494.6719084445,
        "Argument of Periapsis(deg)": 0.00437620445591461,
        "Eccentricity": 0.0,
        "Inclination(deg)": 45.0,
        "Latitude(deg)": -14.677800269946031,
        "Longitude(deg)": -110.1773743599819,
        "Mean Anomaly(deg)": 200.79478323824256,
        "RAAN(deg)": 154.99586899091344,
        "Satellite Name": "Constellation 1 694",
        "Satellite Number": 694,
        "Semi-Major Axis(m)": 7083131.272910544,
        "Time(s)": 73
    },
    {
        "Altitude(m)": 706506.3892478806,
        "Argument of Periapsis(deg)": 0.004436152462160016,
        "Eccentricity": 0.0,
        "Inclination(deg)": 45.0,
        "Latitude(deg)": -14.71946323983683,
        "Longitude(deg)": -110.13572936251872,
        "Mean Anomaly(deg)": 200.85548437849258,
        "RAAN(deg)": 154.99581240174786,
        "Satellite Name": "Constellation 1 694",
        "Satellite Number": 694,
        "Semi-Major Axis(m)": 7083131.272910544,
        "Time(s)": 74
    },
    {
        "Altitude(m)": 706518.1197664725,
        "Argument of Periapsis(deg)": 0.0044961004684054215,
        "Eccentricity": 0.0,
        "Inclination(deg)": 45.0,
        "Latitude(deg)": -14.76111693011234,
        "Longitude(deg)": -110.0940669389078,
        "Mean Anomaly(deg)": 200.91618551874242,
        "RAAN(deg)": 154.9957558125823,
        "Satellite Name": "Constellation 1 694",
        "Satellite Number": 694,
        "Semi-Major Axis(m)": 7083131.272910544,
        "Time(s)": 75
    }
]